0 N-1 DEB
1 13132U 78018C   13281.26332561 -.00000013  00000-0  67570-4 0  9609
2 13132 069.2049 089.0794 0212607 288.6675 126.2471 13.34711622735153
0 N-1 DEB
1 13132U 78018C   13283.29000126  .00000010  00000-0  10673-3 0  9611
2 13132 069.2052 085.0248 0212657 286.5716 144.3258 13.34711653735423
0 N-1 DEB
1 13132U 78018C   13285.83758253 -.00000061  00000-0 -17668-4 0  9625
2 13132 069.2057 079.9282 0212669 283.9523 145.3124 13.34712392735769
0 N-1 DEB
1 13132U 78018C   13288.09411120 -.00000021  00000-0  53245-4 0  9632
2 13132 069.2063 075.4140 0212694 281.6255 187.8223 13.34712233736064
0 N-1 DEB
1 13132U 78018C   13290.49290303 -.00000042  00000-0  16167-4 0  9643
2 13132 069.2069 070.6156 0212699 279.1535 193.8948 13.34712443736381
0 N-1 DEB
1 13132U 78018C   13292.82474644  .00000016  00000-0  11822-3 0  9657
2 13132 069.2071 065.9513 0212726 276.7470 238.2908 13.34712053736691
0 N-1 DEB
1 13132U 78018C   13295.12795436 -.00000011  00000-0  70994-4 0  9661
2 13132 069.2073 061.3442 0212758 274.3726 145.0877 13.34712480737007
